C/2021 P4 (ATLAS),e,56.3603,348.0236,175.8001,294.9696,0.0001946,0.99634292,0.0000,07/30.3910/2022,2000,g  9.5,4.0
# From MPEC 2023-E68
P/2021 PE20 (ATLAS),e,19.9992,99.6234,210.4466,3.745984,0.1359425,0.66986427,184.7817,02/24.0/2025,2000,g 17.0,4.0
# From MPEC 2023-FK0
C/2021 Q3 (ATLAS),e,77.7200,307.9106,114.1385,75.28250,0.0015089,0.93082336,1.6972,02/24.0/2025,2000,g  8.0,4.0
# From MPEC 2025-A40
C/2021 Q4 (Fuls),h,06/11.4245/2023,71.5176,183.3271,147.0740,1.002226,7.565690,2000,6.0,4.0
# From MPEC 2022-C56
P/2021 Q5 (ATLAS),e,10.7394,239.7567,180.9525,3.286898,0.1653959,0.62462865,210.5012,02/24.0/2025,2000,g 15.0,4.0
# From MPEC 2024-UA9
C/2021 Q6 (PANSTARRS),h,03/25.2305/2024,161.8271,133.5729,141.0645,1.002627,8.707802,2000,6.0,4.0
# From MPEC 2023-FK0
C/2021 QM45 (PANSTARRS),e,22.8036,354.5974,72.9040,406.6179,0.0001202,0.99317027,0.0000,08/13.7090/2022,2000,g 11.0,4.0
# From MPEC 2022-X67
P/2021 R1 (PANSTARRS),e,5.5289,143.1441,220.1021,8.264864,0.0414811,0.40898751,48.6010,02/24.0/2025,2000,g 11.0,4.0
# From MPEC 2022-X67
C/2021 R2 (PANSTARRS),e,134.4832,16.3283,32.5456,8579,0.0000012,0.99914715,0.0000,12/28.3728/2021,2000,g  7.5,4.0
# From MPEC 2021-W31
P/2021 R3 (PANSTARRS),e,19.9384,304.1928,2.6134,3.769886,0.1346517,0.33128814,184.6359,02/24.0/2025,2000,g 16.0,4.0
# From MPEC 2021-W31
P/2021 R4 (Wierzchos),e,21.0144,321.2853,56.7676,5.627360,0.0738324,0.58543036,90.7658,02/24.0/2025,2000,g 16.0,4.0
# From MPEC 2024-JU4
P/2021 R5 (Rankin),e,7.8541,219.9587,167.6024,4.797617,0.0937920,0.30609919,106.7726,02/24.0/2025,2000,g 12.0,4.0
# From MPEC 2021-W31
P/2021 R6 (Groeller),e,34.8979,176.1620,220.8685,6.288452,0.0625012,0.59316201,75.6841,02/24.0/2025,2000,g 14.5,4.0
# From MPEC 2022-X67
C/2021 R7 (PANSTARRS),e,158.8723,170.1924,140.3804,962.8914,0.0000330,0.99412773,0.0000,04/17.1354/2021,2000,g 10.5,4.0
# From MPEC 2021-Y10
P/2021 R8 (Sheppard),e,2.2028,167.0692,190.8312,3.019944,0.1878044,0.29264872,232.1501,02/24.0/2025,2000,g 18.5,4.0
# From MPEC 2023-J29
C/2021 S1 (ATLAS),h,03/01.9157/2022,52.0404,299.8590,148.2895,1.002875,6.123715,2000,7.0,4.0
# From MPEC 2025-D44
C/2021 S3 (PANSTARRS),h,02/14.6830/2024,58.5353,215.6141,6.8398,1.000065,1.319922,2000,5.5,4.0
# From MPEC 2025-D44
C/2021 S4 (Tsuchinshan),e,17.4786,5.4614,73.0158,158.3098,0.0004948,0.95773522,0.2065,02/24.0/2025,2000,g  6.5,4.0
# From MPEC 2022-OB6
C/2021 T1 (Lemmon),e,140.3576,56.8460,51.5827,2614,0.0000074,0.99882904,0.0000,10/14.7329/2021,2000,g 12.5,4.0
# From MPEC 2023-A50
C/2021 T2 (Fuls),h,06/08.2688/2022,117.5232,223.2191,263.5462,1.000547,1.244856,2000,12.0,4.0
# From MPEC 2025-D44
C/2021 T4 (Lemmon),e,160.7784,257.8920,329.7869,7121,0.0000016,0.99979190,0.0000,07/31.5411/2023,2000,g  7.5,4.0
# From MPEC 2022-ED3
P/2021 U1 (Wierzchos),e,30.5519,246.7895,145.2261,8.539034,0.0394994,0.71277472,49.0614,02/24.0/2025,2000,g 14.5,4.0
# From MPEC 2022-L66
P/2021 U3 (Attard-Maury),e,69.9642,75.0920,335.3164,4.196586,0.1146463,0.54951886,139.6511,02/24.0/2025,2000,g 15.5,4.0
# From MPEC 2021-W31
C/2021 U4 (Leonard),e,152.8870,241.8076,237.3338,45.45645,0.0032160,0.96066359,3.7292,02/24.0/2025,2000,g 17.0,4.0
# From MPEC 2022-WQ9
C/2021 U5 (Catalina),e,39.0410,182.6943,321.4442,220.8603,0.0003003,0.98931832,0.0000,01/26.9025/2022,2000,g 13.0,4.0
# From MPEC 2022-CN4
C/2021 V1 (Rankin),e,71.4421,207.6891,195.2089,714.0833,0.0000517,0.99577293,0.0000,04/30.6357/2022,2000,g 13.0,4.0
# From MPEC 2024-JU4
P/2021 V2 (Fuls),e,12.6940,232.2762,259.8874,9.086681,0.0359829,0.61515717,27.4959,02/24.0/2025,2000,g 10.0,4.0
# From MPEC 2024-TD8
C/2021 X1 (Maury-Attard),h,05/27.2414/2023,140.1049,10.6070,334.6039,1.000497,3.234436,2000,7.0,4.0
# From MPEC 2024-E08
C/2021 X2 (Bok),h,07/08.2974/2022,137.1572,228.8343,193.3711,1.001393,2.997726,2000,13.0,4.0
# From MPEC 2024-GJ3
C/2021 Y1 (ATLAS),h,04/30.8789/2023,77.1928,244.7669,245.8457,1.001499,2.032514,2000,7.0,4.0
# From MPEC 2022-YN2
C/2022 A1 (Sarneczky),e,116.5678,285.4947,201.2724,365.6156,0.0001410,0.99656550,0.0000,01/31.0826/2022,2000,g 18.0,4.0
# From MPEC 2024-P23
C/2022 A2 (PANSTARRS),h,02/18.1756/2023,108.1581,171.5969,88.3678,1.000071,1.735537,2000,9.5,4.0
# From MPEC 2024-UQ8
C/2022 A3 (Lemmon-ATLAS),e,88.3466,325.4613,234.8631,872.3964,0.0000383,0.99575409,0.0000,09/28.9141/2023,2000,g  8.0,4.0
# From MPEC 2022-K19
P/2022 B1 (Wierzchos),e,10.9934,325.3926,148.9181,5.468609,0.0770706,0.65360542,84.3227,02/24.0/2025,2000,g 16.5,4.0
# From MPEC 2022-YB4
A/2022 B3,e,132.0511,286.1779,150.7047,639.0150,0.0000610,0.99420536,0.0000,01/16.8089/2022,2000,g 16.5,2.0
# From MPEC 2022-GA9
C/2022 B4 (Bok),e,20.0543,340.5377,152.9990,399.4668,0.0001234,0.99655546,0.0000,01/30.3424/2022,2000,g 21.0,4.0
# From MPEC 2023-J29
P/2022 BV9 (Lemmon),e,11.9249,337.3098,16.3268,4.365213,0.1080677,0.23369508,171.3115,02/24.0/2025,2000,g  9.5,4.0
# From MPEC 2023-J29
P/2022 C1 (PANSTARRS),e,4.7629,113.1022,9.4316,7.232443,0.0506730,0.44907651,61.1481,02/24.0/2025,2000,g 12.0,4.0
# From MPEC 2023-VM5
P/2022 C2 (PANSTARRS),e,9.9848,135.2631,89.1497,6.033484,0.0665046,0.44189336,62.0589,02/24.0/2025,2000,g 12.5,4.0
# From MPEC 2023-UR6
P/2022 C3 (PANSTARRS),e,12.8243,139.0404,93.8162,9.616171,0.0330522,0.54544129,32.0539,02/24.0/2025,2000,g 11.5,4.0
# From MPEC 2022-K19
P/2022 D1 (PANSTARRS),e,44.0712,47.9529,88.6545,7.404979,0.0489123,0.54790793,62.3815,02/24.0/2025,2000,g 12.5,4.0
# From MPEC 2022-K19
C/2022 D2 (Kowalski),e,22.6767,312.3713,177.8379,391.2039,0.0001274,0.99603132,0.0000,03/27.9592/2022,2000,g 17.0,4.0
# From MPEC 2022-L66
P/2022 E1 (Christensen),e,19.0070,113.3439,114.9228,3.778108,0.1342124,0.22057913,132.9345,02/24.0/2025,2000,g 13.5,4.0
# From MPEC 2025-D44
C/2022 E2 (ATLAS),h,09/14.1401/2024,137.1405,125.3942,41.7426,1.000602,3.666339,2000,5.0,4.0
# From MPEC 2024-GJ3
C/2022 E3 (ZTF),e,109.1732,302.5172,145.8172,141093,0.0000000,0.99999211,0.0000,01/12.5799/2023,2000,g  7.5,4.0
# From MPEC 2024-PC5
C/2022 F1 (ATLAS),e,58.0029,350.6349,278.3135,5117,0.0000027,0.99883212,0.0000,08/05.4105/2022,2000,g  7.0,4.0
# From MPEC 2022-QD9
C/2022 F2 (NEOWISE),e,97.3121,58.7841,200.6018,23.81109,0.0084827,0.93324879,9.0719,02/24.0/2025,2000,g 14.5,4.0
# From MPEC 2024-JU4
C/2022 H1 (PANSTARRS),e,49.8596,6.3339,246.2930,852.9226,0.0000396,0.99098463,0.0000,01/18.7310/2024,2000,g  6.0,4.0
# From MPEC 2022-VC5
C/2022 J1 (Maury-Attard),e,105.9590,280.7991,305.6280,47.54118,0.0030068,0.96632008,3.3096,02/24.0/2025,2000,g 14.9,4.0
# From MPEC 2023-M14
C/2022 J2 (Bok),e,149.1399,252.6659,133.1174,89.90249,0.0011562,0.97967366,0.0000,10/26.7588/2022,2000,g  9.0,4.0
# From MPEC 2024-YC7
C/2022 JK5 (PANSTARRS),e,16.8263,59.6512,247.3776,44.04053,0.0033723,0.93881529,2.2490,02/24.0/2025,2000,g 11.0,4.0
# From MPEC 2022-ST7
C/2022 K1 (Leonard),h,12/16.7458/2021,41.9724,136.3540,142.5722,1.001075,3.987108,2000,11.0,4.0
# From MPEC 2023-CD7
C/2022 L1 (Catalina),e,123.4381,300.0317,59.8111,444.9433,0.0001050,0.99642445,0.0000,09/27.9157/2022,2000,g 15.8,4.0
# From MPEC 2025-D44
C/2022 L2 (ATLAS),h,03/12.2181/2024,129.3135,39.2403,199.9130,1.000960,2.692866,2000,6.5,4.0
# From MPEC 2024-DC6
P/2022 L3 (ATLAS),e,21.5396,29.8187,10.4060,6.505966,0.0593932,0.62755238,50.3687,02/24.0/2025,2000,g 16.5,4.0
# From MPEC 2022-N37
C/2022 L4 (PANSTARRS),e,141.2454,66.0662,125.2754,284.1641,0.0002058,0.98940732,0.0000,12/09.0642/2021,2000,g 14.0,4.0
# From MPEC 2024-GJ3
C/2022 N1 (Attard-Maury),e,164.7274,301.8785,41.0057,36.72410,0.0044287,0.95972112,3.9774,02/24.0/2025,2000,g 16.9,4.0
# From MPEC 2025-D44
C/2022 N2 (PANSTARRS),h,07/31.7640/2025,5.5030,319.7414,75.3898,1.003334,3.825436,2000,6.0,4.0
# From MPEC 2024-A43
C/2022 O1 (ATLAS),h,02/15.5800/2022,71.0462,49.9138,268.9427,1.001693,7.434504,2000,6.0,4.0
# From MPEC 2023-HD1
P/2022 O2 (PANSTARRS),e,9.4196,330.4922,48.6634,6.305778,0.0622438,0.72106659,48.4972,02/24.0/2025,2000,g 16.2,4.0
# From MPEC 2023-N01
C/2022 P1 (NEOWISE),e,154.5926,205.0742,249.8965,18.47973,0.0124068,0.91379326,10.1527,02/24.0/2025,2000,g 13.0,4.0
# From MPEC 2023-XP6
P/2022 P2 (ZTF),e,12.4406,291.1778,137.7547,4.491081,0.1035566,0.55809602,99.3043,02/24.0/2025,2000,g 12.5,4.0
# From MPEC 2023-HD1
C/2022 P3 (ZTF),e,59.5179,72.2151,0.2039,261.3776,0.0002332,0.99018536,0.0000,07/27.5304/2022,2000,g  9.0,4.0
# From MPEC 2023-R20
C/2022 Q2 (ATLAS),e,151.4650,352.9601,44.0454,32.82739,0.0052402,0.94997039,3.9526,02/24.0/2025,2000,g 13.0,4.0
# From MPEC 2025-D44
C/2022 QE78 (ATLAS),h,09/11.0616/2025,36.5867,119.9014,0.5172,1.004114,5.476603,2000,5.0,4.0
# From MPEC 2024-M41
P/2022 R1 (PANSTARRS),e,7.3745,175.7107,221.8464,7.158165,0.0514638,0.50165651,26.1447,02/24.0/2025,2000,g 11.5,4.0
# From MPEC 2022-Y15
C/2022 R2 (ATLAS),e,52.9015,60.4047,78.3187,433.7979,0.0001091,0.99854648,0.0000,10/25.4774/2022,2000,g 17.0,4.0
# From MPEC 2025-CE3
C/2022 R3 (Leonard),h,03/05.8740/2023,43.0752,8.2554,72.9246,1.001537,5.131316,2000,9.0,4.0
# From MPEC 2022-X67
P/2022 R4 (PANSTARRS),e,21.0118,176.6349,197.4949,3.838319,0.1310667,0.48959086,125.8166,02/24.0/2025,2000,g 16.5,4.0
# From MPEC 2022-WQ9
P/2022 R5 (PANSTARRS),e,15.2925,115.0442,240.5573,3.069617,0.1832642,0.19483501,184.0539,02/24.0/2025,2000,g 16.0,4.0
# From MPEC 2025-D44
C/2022 R6 (PANSTARRS),h,08/25.9791/2025,57.0186,150.7863,319.8964,1.004988,6.565733,2000,5.0,4.0
# From MPEC 2023-HD1
P/2022 S1 (PANSTARRS),e,34.5687,136.0911,262.8412,6.409169,0.0607437,0.50775693,55.8744,02/24.0/2025,2000,g 15.1,4.0
# From MPEC 2022-VC5
C/2022 S3 (PANSTARRS),h,01/21.6702/2023,78.4946,157.2667,267.9785,1.000395,0.838501,2000,17.0,4.0
# From MPEC 2024-PC5
C/2022 S4 (Lemmon),e,101.2186,220.1769,268.5613,1380,0.0000192,0.99799799,0.0000,07/18.7748/2024,2000,g  8.0,4.0
# From MPEC 2023-HD1
C/2022 S5 (PANSTARRS),e,136.5189,214.8643,232.8072,20.51729,0.0106053,0.89382020,8.6886,02/24.0/2025,2000,g 16.3,4.0
# From MPEC 2024-O39
C/2022 T1 (Lemmon),h,02/17.4265/2024,22.5433,236.9176,324.2931,1.000261,3.444479,2000,9.0,4.0
# From MPEC 2024-YC7
